{"type": "FeatureCollection", "features": [ {"type": "Feature", "properties": {"norad_id": 66990, "name": "TJS-22", "group": "last-30-days", "lat": -1.2931934833862548, "lon": -115.24844634837592, "alt_km": 35773.004695566866, "timestamp": "2025-12-22T05:49:02.188381+00:00", "meta": {"OBJECT_NAME": "TJS-22", "OBJECT_ID": "2025-290A", "EPOCH": "2025-12-21T08:36:27.653760", "MEAN_MOTION": 1.00270921, "ECCENTRICITY": 0.0003439, "INCLINATION": 1.967, "RA_OF_ASC_NODE": 285.0224, "ARG_OF_PERICENTER": 342.3133, "MEAN_ANOMALY": 18.4141, "EPHEMERIS_TYPE": 0, "CLASSIFICATION_TYPE": "U", "NORAD_CAT_ID": 66990, "ELEMENT_SET_NO": 999, "REV_AT_EPOCH": 24, "BSTAR": 0, "MEAN_MOTION_DOT": 1.8e-07, "MEAN_MOTION_DDOT": 0}, "tle": {"line1": "1 66990U 25290A   25355.35865340  .00000018  00000+0  00000+0 0  9999", "line2": "2 66990   1.9670 285.0224 0003439 342.3133  18.4141  1.00270921   243"}}, "geometry": {"type": "Point", "coordinates": [-115.24844634837592, -1.2931934833862548]}}, {"type": "Feature", "properties": {"norad_id": 66991, "name": "CZ-3B R/B", "group": "last-30-days", "lat": -28.23021481283007, "lon": -160.3320401815729, "alt_km": 3190.7487214728053, "timestamp": "2025-12-22T05:49:02.188395+00:00", "meta": {"OBJECT_NAME": "CZ-3B R/B", "OBJECT_ID": "2025-290B", "EPOCH": "2025-12-15T17:23:33.043200", "MEAN_MOTION": 2.38388611, "ECCENTRICITY": 0.7240884, "INCLINATION": 28.4636, "RA_OF_ASC_NODE": 300.4666, "ARG_OF_PERICENTER": 182.7002, "MEAN_ANOMALY": 168.625, "EPHEMERIS_TYPE": 0, "CLASSIFICATION_TYPE": "U", "NORAD_CAT_ID": 66991, "ELEMENT_SET_NO": 999, "REV_AT_EPOCH": 16, "BSTAR": 0.00075879, "MEAN_MOTION_DOT": 0.00057911, "MEAN_MOTION_DDOT": -2.0514e-07}, "tle": {"line1": "1 66991U 25290B   25349.72468800  .00057911 -20514-6  75879-3 0  9998", "line2": "2 66991  28.4636 300.4666 7240884 182.7002 168.6250  2.38388611   165"}}, "geometry": {"type": "Point", "coordinates": [-160.3320401815729, -28.23021481283007]}}, {"type": "Feature", "properties": {"norad_id": 66993, "name": "2025-292A", "group": "last-30-days", "lat": -46.103392982463625, "lon": 76.73250913560383, "alt_km": 557.2624880810417, "timestamp": "2025-12-22T05:49:02.188407+00:00", "meta": {"OBJECT_NAME": "2025-292A", "OBJECT_ID": "2025-292A", "EPOCH": "2025-12-21T18:51:04.368672", "MEAN_MOTION": 15.04555123, "ECCENTRICITY": 0.0014153, "INCLINATION": 97.6514, "RA_OF_ASC_NODE": 68.2488, "ARG_OF_PERICENTER": 239.1337, "MEAN_ANOMALY": 120.8498, "EPHEMERIS_TYPE": 0, "CLASSIFICATION_TYPE": "U", "NORAD_CAT_ID": 66993, "ELEMENT_SET_NO": 999, "REV_AT_EPOCH": 175, "BSTAR": 0.0002043, "MEAN_MOTION_DOT": 2.808e-05, "MEAN_MOTION_DDOT": 0}, "tle": {"line1": "1 66993U 25292A   25355.78546723  .00002808  00000+0  20430-3 0  9994", "line2": "2 66993  97.6514  68.2488 0014153 239.1337 120.8498 15.04555123  1751"}}, "geometry": {"type": "Point", "coordinates": [76.73250913560383, -46.103392982463625]}}, {"type": "Feature", "properties": {"norad_id": 66994, "name": "2025-292B", "group": "last-30-days", "lat": -44.22700177064424, "lon": 76.22331321494418, "alt_km": 557.3693453872183, "timestamp": "2025-12-22T05:49:02.188417+00:00", "meta": {"OBJECT_NAME": "2025-292B", "OBJECT_ID": "2025-292B", "EPOCH": "2025-12-21T18:50:34.990080", "MEAN_MOTION": 15.04599018, "ECCENTRICITY": 0.0013934, "INCLINATION": 97.6524, "RA_OF_ASC_NODE": 68.2505, "ARG_OF_PERICENTER": 239.3708, "MEAN_ANOMALY": 120.6144, "EPHEMERIS_TYPE": 0, "CLASSIFICATION_TYPE": "U", "NORAD_CAT_ID": 66994, "ELEMENT_SET_NO": 999, "REV_AT_EPOCH": 175, "BSTAR": 0.00025209, "MEAN_MOTION_DOT": 3.484e-05, "MEAN_MOTION_DDOT": 0}, "tle": {"line1": "1 66994U 25292B   25355.78512720  .00003484  00000+0  25209-3 0  9995", "line2": "2 66994  97.6524  68.2505 0013934 239.3708 120.6144 15.04599018  1750"}}, "geometry": {"type": "Point", "coordinates": [76.22331321494418, -44.22700177064424]}}, {"type": "Feature", "properties": {"norad_id": 66995, "name": "2025-292C", "group": "last-30-days", "lat": -43.57219230339081, "lon": 76.05029351197544, "alt_km": 557.2643717683086, "timestamp": "2025-12-22T05:49:02.188427+00:00", "meta": {"OBJECT_NAME": "2025-292C", "OBJECT_ID": "2025-292C", "EPOCH": "2025-12-21T18:50:25.080864", "MEAN_MOTION": 15.04627143, "ECCENTRICITY": 0.0014222, "INCLINATION": 97.6513, "RA_OF_ASC_NODE": 68.2495, "ARG_OF_PERICENTER": 239.7323, "MEAN_ANOMALY": 120.2496, "EPHEMERIS_TYPE": 0, "CLASSIFICATION_TYPE": "U", "NORAD_CAT_ID": 66995, "ELEMENT_SET_NO": 999, "REV_AT_EPOCH": 175, "BSTAR": 0.00028007, "MEAN_MOTION_DOT": 3.881e-05, "MEAN_MOTION_DDOT": 0}, "tle": {"line1": "1 66995U 25292C   25355.78501251  .00003881  00000+0  28007-3 0  9993", "line2": "2 66995  97.6513  68.2495 0014222 239.7323 120.2496 15.04627143  1752"}}, "geometry": {"type": "Point", "coordinates": [76.05029351197544, -43.57219230339081]}}, {"type": "Feature", "properties": {"norad_id": 66996, "name": "2025-292D", "group": "last-30-days", "lat": -41.827692094961535, "lon": 75.61202514885979, "alt_km": 557.1114338440811, "timestamp": "2025-12-22T05:49:02.188436+00:00", "meta": {"OBJECT_NAME": "2025-292D", "OBJECT_ID": "2025-292D", "EPOCH": "2025-12-21T18:49:57.245376", "MEAN_MOTION": 15.04650729, "ECCENTRICITY": 0.0013376, "INCLINATION": 97.6508, "RA_OF_ASC_NODE": 68.2491, "ARG_OF_PERICENTER": 242.3889, "MEAN_ANOMALY": 117.5979, "EPHEMERIS_TYPE": 0, "CLASSIFICATION_TYPE": "U", "NORAD_CAT_ID": 66996, "ELEMENT_SET_NO": 999, "REV_AT_EPOCH": 175, "BSTAR": 0.00017078, "MEAN_MOTION_DOT": 2.343e-05, "MEAN_MOTION_DDOT": 0}, "tle": {"line1": "1 66996U 25292D   25355.78469034  .00002343  00000+0  17078-3 0  9994", "line2": "2 66996  97.6508  68.2491 0013376 242.3889 117.5979 15.04650729  1750"}}, "geometry": {"type": "Point", "coordinates": [75.61202514885979, -41.827692094961535]}}, {"type": "Feature", "properties": {"norad_id": 66997, "name": "2025-292E", "group": "last-30-days", "lat": -38.32163890742275, "lon": 74.80723532153782, "alt_km": 557.0341010385009, "timestamp": "2025-12-22T05:49:02.188446+00:00", "meta": {"OBJECT_NAME": "2025-292E", "OBJECT_ID": "2025-292E", "EPOCH": "2025-12-21T18:49:02.663040", "MEAN_MOTION": 15.04738214, "ECCENTRICITY": 0.0013768, "INCLINATION": 97.6529, "RA_OF_ASC_NODE": 68.2527, "ARG_OF_PERICENTER": 243.4151, "MEAN_ANOMALY": 116.5665, "EPHEMERIS_TYPE": 0, "CLASSIFICATION_TYPE": "U", "NORAD_CAT_ID": 66997, "ELEMENT_SET_NO": 999, "REV_AT_EPOCH": 174, "BSTAR": 0.00020986, "MEAN_MOTION_DOT": 2.9e-05, "MEAN_MOTION_DDOT": 0}, "tle": {"line1": "1 66997U 25292E   25355.78405860  .00002900  00000+0  20986-3 0  9993", "line2": "2 66997  97.6529  68.2527 0013768 243.4151 116.5665 15.04738214  1749"}}, "geometry": {"type": "Point", "coordinates": [74.80723532153782, -38.32163890742275]}}, {"type": "Feature", "properties": {"norad_id": 66998, "name": "2025-292F", "group": "last-30-days", "lat": -31.473039469571155, "lon": 73.43504678022263, "alt_km": 557.0589260864381, "timestamp": "2025-12-22T05:49:02.188456+00:00", "meta": {"OBJECT_NAME": "2025-292F", "OBJECT_ID": "2025-292F", "EPOCH": "2025-12-21T18:47:16.332288", "MEAN_MOTION": 15.04909837, "ECCENTRICITY": 0.00149, "INCLINATION": 97.6548, "RA_OF_ASC_NODE": 68.257, "ARG_OF_PERICENTER": 244.3341, "MEAN_ANOMALY": 115.6346, "EPHEMERIS_TYPE": 0, "CLASSIFICATION_TYPE": "U", "NORAD_CAT_ID": 66998, "ELEMENT_SET_NO": 999, "REV_AT_EPOCH": 175, "BSTAR": 0.00027342, "MEAN_MOTION_DOT": 3.817e-05, "MEAN_MOTION_DDOT": 0}, "tle": {"line1": "1 66998U 25292F   25355.78282792  .00003817  00000+0  27342-3 0  9992", "line2": "2 66998  97.6548  68.2570 0014900 244.3341 115.6346 15.04909837  1757"}}, "geometry": {"type": "Point", "coordinates": [73.43504678022263, -31.473039469571155]}}, {"type": "Feature", "properties": {"norad_id": 66999, "name": "2025-292G", "group": "last-30-days", "lat": -28.76109075762193, "lon": 72.94881953105842, "alt_km": 556.8483551490635, "timestamp": "2025-12-22T05:49:02.188468+00:00", "meta": {"OBJECT_NAME": "2025-292G", "OBJECT_ID": "2025-292G", "EPOCH": "2025-12-21T18:46:34.126752", "MEAN_MOTION": 15.04973491, "ECCENTRICITY": 0.0014407, "INCLINATION": 97.6556, "RA_OF_ASC_NODE": 68.2589, "ARG_OF_PERICENTER": 246.3159, "MEAN_ANOMALY": 113.6555, "EPHEMERIS_TYPE": 0, "CLASSIFICATION_TYPE": "U", "NORAD_CAT_ID": 66999, "ELEMENT_SET_NO": 999, "REV_AT_EPOCH": 175, "BSTAR": 0.00027301, "MEAN_MOTION_DOT": 3.817e-05, "MEAN_MOTION_DDOT": 0}, "tle": {"line1": "1 66999U 25292G   25355.78233943  .00003817  00000+0  27301-3 0  9992", "line2": "2 66999  97.6556  68.2589 0014407 246.3159 113.6555 15.04973491  1755"}}, "geometry": {"type": "Point", "coordinates": [72.94881953105842, -28.76109075762193]}}, {"type": "Feature", "properties": {"norad_id": 67000, "name": "2025-292H", "group": "last-30-days", "lat": -28.41410230336277, "lon": 72.89097390999514, "alt_km": 556.853972684059, "timestamp": "2025-12-22T05:49:02.188478+00:00", "meta": {"OBJECT_NAME": "2025-292H", "OBJECT_ID": "2025-292H", "EPOCH": "2025-12-21T17:10:44.575680", "MEAN_MOTION": 15.0499291, "ECCENTRICITY": 0.0014389, "INCLINATION": 97.657, "RA_OF_ASC_NODE": 68.1949, "ARG_OF_PERICENTER": 246.3587, "MEAN_ANOMALY": 113.6129, "EPHEMERIS_TYPE": 0, "CLASSIFICATION_TYPE": "U", "NORAD_CAT_ID": 67000, "ELEMENT_SET_NO": 999, "REV_AT_EPOCH": 161, "BSTAR": 0.00034025, "MEAN_MOTION_DOT": 4.776e-05, "MEAN_MOTION_DDOT": 0}, "tle": {"line1": "1 67000U 25292H   25355.71579370  .00004776  00000+0  34025-3 0  9992", "line2": "2 67000  97.6570  68.1949 0014389 246.3587 113.6129 15.04992910  1617"}}, "geometry": {"type": "Point", "coordinates": [72.89097390999514, -28.41410230336277]}}]}